{
    "links": {
        "self": "http://www.neowsapp.com/rest/v1/neo/54016466?api_key=iIulBulltgU6a56xZRHN4H3l9WmuAYTsLGpBGhQ2"
    },
    "id": "54016466",
    "neo_reference_id": "54016466",
    "name": "(2020 GG1)",
    "designation": "2020 GG1",
    "nasa_jpl_url": "http://ssd.jpl.nasa.gov/sbdb.cgi?sstr=54016466",
    "absolute_magnitude_h": 25.254,
    "estimated_diameter": {
        "kilometers": {
            "estimated_diameter_min": 0.0236458525,
            "estimated_diameter_max": 0.0528737336
        },
        "meters": {
            "estimated_diameter_min": 23.6458525232,
            "estimated_diameter_max": 52.8737336278
        },
        "miles": {
            "estimated_diameter_min": 0.014692847,
            "estimated_diameter_max": 0.0328542047
        },
        "feet": {
            "estimated_diameter_min": 77.5782587922,
            "estimated_diameter_max": 173.4702602354
        }
    },
    "is_potentially_hazardous_asteroid": false,
    "close_approach_data": [
        {
            "close_approach_date": "2020-04-18",
            "close_approach_date_full": "2020-Apr-18 21:49",
            "epoch_date_close_approach": 1587246540000,
            "relative_velocity": {
                "kilometers_per_second": "5.9576242865",
                "kilometers_per_hour": "21447.4474312526",
                "miles_per_hour": "13326.6097663802"
            },
            "miss_distance": {
                "astronomical": "0.0766375876",
                "lunar": "29.8120215764",
                "kilometers": "11464819.866898412",
                "miles": "7123908.7252536056"
            },
            "orbiting_body": "Earth"
        },
        {
            "close_approach_date": "2135-03-30",
            "close_approach_date_full": "2135-Mar-30 08:48",
            "epoch_date_close_approach": 5214530880000,
            "relative_velocity": {
                "kilometers_per_second": "15.5020853708",
                "kilometers_per_hour": "55807.5073348116",
                "miles_per_hour": "34676.6147659"
            },
            "miss_distance": {
                "astronomical": "0.3875469207",
                "lunar": "150.7557521523",
                "kilometers": "57976193.861778909",
                "miles": "36024736.3764865842"
            },
            "orbiting_body": "Earth"
        },
        {
            "close_approach_date": "2135-08-06",
            "close_approach_date_full": "2135-Aug-06 19:29",
            "epoch_date_close_approach": 5225714940000,
            "relative_velocity": {
                "kilometers_per_second": "4.9183949309",
                "kilometers_per_hour": "17706.2217513312",
                "miles_per_hour": "11001.9576209869"
            },
            "miss_distance": {
                "astronomical": "0.4454418233",
                "lunar": "173.2768692637",
                "kilometers": "66637147.974596371",
                "miles": "41406403.7109610798"
            },
            "orbiting_body": "Earth"
        }
    ],
    "orbital_data": {
        "orbit_id": "2",
        "orbit_determination_date": "2020-04-11 06:09:18",
        "first_observation_date": "2020-03-25",
        "last_observation_date": "2020-04-11",
        "data_arc_in_days": 17,
        "observations_used": 20,
        "orbit_uncertainty": "8",
        "minimum_orbit_intersection": ".0763491",
        "jupiter_tisserand_invariant": "4.497",
        "epoch_osculation": "2458936.5",
        "eccentricity": ".296714436847636",
        "semi_major_axis": "1.493058035350196",
        "inclination": "8.267608326478863",
        "ascending_node_longitude": "10.79599221971172",
        "orbital_period": "666.3669675986098",
        "perihelion_distance": "1.050046161210425",
        "perihelion_argument": "218.3067652472897",
        "aphelion_distance": "1.936069909489968",
        "perihelion_time": "2458978.095656020100",
        "mean_anomaly": "337.5282436024711",
        "mean_motion": ".5402428654249384",
        "equinox": "J2000",
        "orbit_class": {
            "orbit_class_type": "AMO",
            "orbit_class_description": "Near-Earth asteroid orbits similar to that of 1221 Amor",
            "orbit_class_range": "1.017 AU < q (perihelion) < 1.3 AU"
        }
    },
    "is_sentry_object": false
}